{"type":"FeatureCollection","metadata":{"name":"Оптстройшоп","creator":"Yandex Map Constructor"},"features":[{"type":"Feature","id":0,"geometry":{"type":"Polygon","coordinates":[[[37.618572016113,55.690197843318046],[37.64020134960909,55.69310674783038],[37.64964272534156,55.69834222825725],[37.659293515555675,55.70797465662715],[37.67735089470904,55.71343470352449],[37.71165117035197,55.72297845397294],[37.71328195343293,55.724237944371744],[37.71319612274446,55.72520675538446],[37.70701631317416,55.73009888224386],[37.70126565704627,55.73474825399487],[37.69877656708045,55.737508555362275],[37.698261582949584,55.73925180258919],[37.69808992157264,55.74143075166099],[37.69877656708045,55.743173822951384],[37.69972070465365,55.74467473835164],[37.70065431944729,55.74868284324326],[37.697907737415996,55.75023195462857],[37.69619112364651,55.7520714441646],[37.69481783263088,55.754298078108135],[37.693959525746074,55.755943768983556],[37.69344454161526,55.75807338307547],[37.69344454161521,55.76175153235391],[37.69258623473045,55.767268103052054],[37.69172792784564,55.76920355613208],[37.688294700306585,55.77220331770634],[37.68297319762104,55.776073635250086],[37.679883292835875,55.77733140535355],[37.676278403919824,55.77878262789514],[37.670956901234305,55.780910989451556],[37.668210319203055,55.78245881544017],[37.66341363530975,55.786326510663486],[37.65895043950896,55.790098701743005],[37.654830566462046,55.79222644257757],[37.65053903203825,55.793967234623835],[37.64556085210658,55.79358039869927],[37.64058267217498,55.79290342654682],[37.63148461919638,55.79251658000509],[37.627536407526456,55.79300013757151],[37.62049829107142,55.79348368910897],[37.61449014287807,55.79348368910897],[37.608138671930796,55.7933869792838],[37.60230218511436,55.79271000375511],[37.5974956665597,55.79261329200069],[37.59217416387416,55.7924198677683],[37.58822595220424,55.79271000375511],[37.58187448125696,55.79280671526841],[37.576037994440554,55.79203301640959],[37.5726047669015,55.79077572284526],[37.539894936915225,55.770931886224794],[37.53611838662225,55.76468998172438],[37.53577506386836,55.76246394356623],[37.53500258767205,55.76057655037165],[37.532685159083115,55.753268085789514],[37.53114020669057,55.74987958926045],[37.53491675698355,55.74068075141512],[37.5357750638683,55.73855018364068],[37.540409921045985,55.73622579466381],[37.543156503077256,55.73351383181837],[37.54538810097769,55.73060794735519],[37.54802702868259,55.72739049193649],[37.55077361071381,55.72448414971863],[37.562274922969706,55.720996252286895],[37.56587981188571,55.7188646053923],[37.57017134630955,55.71682974254047],[37.57532118761815,55.713631885809896],[37.57926939928807,55.710627599079004],[37.58510588610448,55.707623080310725],[37.5890540977744,55.70297046444214],[37.594890584590786,55.69628135443326],[37.596950521114245,55.694536180132935],[37.59969710314549,55.692500044556525],[37.60158537829198,55.690754700723666],[37.604675283077114,55.689494125958234],[37.60690688097752,55.688912308454135],[37.618572016113,55.690197843318046]]]},"properties":{"description":"area-1","fill":"#ed4543","fill-opacity":0.6,"stroke":"#ed4543","stroke-width":"5","stroke-opacity":0.6}},{"type":"Feature","id":1,"geometry":{"type":"Polygon","coordinates":[[[37.9193791582031,55.409636680331985],[37.95508472460934,55.418230239305636],[38.01053784407009,55.46731135930036],[38.0380036643826,55.48992983283175],[38.05173657453885,55.504741764494845],[38.05585644758572,55.53279113623873],[38.05722973860134,55.55459343413859],[38.07782910383571,55.57716158634457],[38.13138745344505,55.603604219201685],[38.160226564773176,55.61681882659599],[38.18937055024847,55.654377281389074],[38.207223333451594,55.71334286550276],[38.20996991548284,55.73814377515951],[38.21134320649846,55.75595965892495],[38.21134320649846,55.77067096655076],[38.19956999034472,55.81712183116888],[38.15974455089161,55.84803773052874],[38.06636076182906,55.905167102298996],[38.027908613391574,55.91750830175185],[38.008682539172824,55.92290633623507],[37.98396330089157,55.92676161298445],[37.861740400500935,55.974535056081855],[37.76423673839152,55.99147269684937],[37.70106535167277,55.99762999203161],[37.6365206739384,55.99916916193575],[37.51017790050088,56.002247317077575],[37.39482145518836,56.00301681739478],[37.3371432325321,56.002247317077575],[37.22041349620394,55.99686038398364],[37.17646818370396,55.98300480766969],[37.14900236339145,55.96991440647249],[37.12848208948008,55.951085881812126],[37.11200259729258,55.92796302797979],[37.09552310510508,55.883991406821444],[37.09140323205821,55.86777871340886],[37.08453677698007,55.85619405543161],[37.1143308850799,55.825403788724444],[37.13287031379086,55.79949826615009],[37.13836347785335,55.77667159963044],[37.14866316047055,55.73601463847932],[37.14316999640803,55.721677756447484],[37.14179670539241,55.70772328245962],[37.131497022775235,55.694539459817385],[37.11919496917926,55.64881332281484],[37.075249656679254,55.62395544346866],[37.04091738128864,55.563297980550956],[37.03954409027301,55.54850817907275],[37.05739687347613,55.52124917150939],[37.10950532505542,55.50156558453145],[37.15963044712573,55.48246339683895],[37.264000564313235,55.439937400646386],[37.28116670200855,55.42978678075739],[37.29833283970385,55.42431997648191],[37.33747163364918,55.41846184261265],[37.44395288565427,55.40559224372549],[37.48377832510741,55.396995923595995],[37.641020146396414,55.39543275453142],[37.713804570224546,55.39738670614038],[37.75637659170893,55.40168505825012],[37.827787724521414,55.402857254623406],[37.87310632803697,55.40793636873048],[37.9193791582031,55.409636680331985]],[[37.626514760043726,55.69120053823541],[37.6228369886732,55.690671549440566],[37.61940376113417,55.69028368381319],[37.612022321925195,55.6894594565108],[37.606872480616595,55.68887763848861],[37.60145886494197,55.69062192443417],[37.59992644561852,55.69242737237855],[37.5959782339486,55.695190678580765],[37.59271666778654,55.69877783612169],[37.58524939788909,55.70750197441348],[37.57932708038421,55.71055496075087],[37.57005736602874,55.71680556623649],[37.56173178924651,55.72121430394451],[37.5507454611215,55.724532639433725],[37.5455956198129,55.730514616421],[37.54147574676603,55.735454502618325],[37.535639259949676,55.73903794871266],[37.53117606414889,55.749108568201386],[37.534437630311,55.759176577686105],[37.53598258270357,55.76275783629051],[37.53598258270357,55.764596732626394],[37.53804251922703,55.767693624327975],[37.540102455750464,55.77098380108327],[37.54525229705906,55.77437045645248],[37.55332038177585,55.779111277535655],[37.56173178924656,55.78385151948151],[37.56773993743991,55.78772067542263],[37.57220313324068,55.79033213753686],[37.57546469940279,55.79207301460613],[37.578726265564896,55.7927500012535],[37.58816764129736,55.79275000126608],[37.5924591757212,55.79255657771548],[37.59589240326026,55.79255657771548],[37.60224387420753,55.79284671267962],[37.60859534515478,55.793330266130006],[37.61443183197119,55.79352368582205],[37.62267157806495,55.79342697609659],[37.629881355897005,55.79275000127859],[37.63365790618998,55.79265328962387],[37.63897940887553,55.792846712692146],[37.64447257293804,55.79342697610911],[37.65065238250835,55.79362039531884],[37.653398866758096,55.79339919558246],[37.656817989264084,55.79097893322527],[37.66110952368793,55.788560959099456],[37.66337685341181,55.78630977830305],[37.66629509682001,55.783891513110895],[37.670414969866904,55.78098939589784],[37.67470650429072,55.77944151128973],[37.67985634559931,55.777313069129384],[37.68483452553094,55.77479748696821],[37.68843941444697,55.77199145295249],[37.69187264198602,55.768894904113886],[37.69324593300165,55.765120651216556],[37.69341759437862,55.76153961054605],[37.693760917132515,55.758732618047816],[37.69427590126338,55.755635011528966],[37.695820853655945,55.75273078102068],[37.697173133177195,55.751096238428],[37.70072392172958,55.74864743403678],[37.70038059897567,55.745549023113846],[37.69866398520615,55.741869339184085],[37.69856673406899,55.73884223824424],[37.70165663885415,55.734774496872305],[37.71126967596354,55.726443983694004],[37.71332961248697,55.72470016198125],[37.710504796458196,55.722533004394684],[37.68422951438114,55.71538145240917],[37.65924169263118,55.7079378176107],[37.65682579302313,55.70526912201245],[37.649603215243914,55.69827831124062],[37.640204754855745,55.693115542169984],[37.63788732626686,55.69277618125186],[37.63243707754861,55.692000488044165],[37.62883218863258,55.691612635644226],[37.626514760043726,55.69120053823541]]]},"properties":{"description":"area-2","fill":"#ffd21e","fill-opacity":0.6,"stroke":"#ffd21e","stroke-width":"5","stroke-opacity":0.6}},{"type":"Feature","id":2,"geometry":{"type":"Polygon","coordinates":[[[37.81964675734967,55.280949798651235],[38.15690769049397,55.36386430811189],[38.213212622134606,55.431078410405256],[38.23793186041584,55.44825428253444],[38.23793186041584,55.521557567253545],[38.276384008853356,55.55815786429542],[38.31071628424397,55.58305764099235],[38.36064379859502,55.663788884052316],[38.333864623790326,55.756635557727336],[38.29655042103962,55.81220983654996],[38.21432462147897,55.952888414599784],[38.063262609760216,56.01601722970167],[37.97056546620553,56.048695724559295],[37.827443175257294,56.07478941262797],[37.776631407679176,56.070564867767615],[37.51762000623138,56.13047620579225],[37.37577178759805,56.14743489505613],[37.22196319384804,56.134400436968996],[37.04692544584768,56.06744871362827],[36.96907202108233,56.01964854617973],[36.93843046529611,55.96942809889666],[36.858967582184796,55.91569364341111],[36.83822909409907,55.7899024941643],[36.87672751978834,55.73012873218148],[36.957408366956315,55.6275076213601],[36.95929465911871,55.514705595286216],[36.999842619810515,55.445931952168216],[37.29990078730159,55.30033231643042],[37.486959405258055,55.25526058582266],[37.81964675734967,55.280949798651235]],[[38.02254290135172,55.476419650371184],[37.98930860791213,55.44808344633098],[37.955662978029316,55.41919232205728],[37.94433332715042,55.41548178813457],[37.91961408886916,55.41040364809599],[37.911717665529316,55.40942700754519],[37.87429548535353,55.40864567765945],[37.84888960156449,55.40473879540926],[37.82142378125198,55.40239447984269],[37.78915144238479,55.40161301028344],[37.750012648439494,55.40161301028344],[37.71911360058793,55.39731465030433],[37.67860151562698,55.39653307986983],[37.59757734570511,55.39653307986983],[37.4856541279317,55.3969238670448],[37.45063520703327,55.40395737242316],[37.39639021191607,55.411380264430996],[37.3421452167989,55.41919232208668],[37.29682661328327,55.42387881194603],[37.28034712109577,55.43051704986721],[37.26318098340046,55.44027712844984],[37.22060896191608,55.45744898069129],[37.05718733105682,55.521776596641324],[37.038647902345886,55.546699525765874],[37.0393345478537,55.56265744253441],[37.0695469501975,55.62098462254577],[37.118298781252186,55.64856247087433],[37.122418654299054,55.65865652527421],[37.12928510937719,55.69357730523091],[37.140958083010034,55.70676145379124],[37.141644728517846,55.711801271486976],[37.1450779560569,55.72497924674003],[37.14988447461158,55.73621575623744],[37.1450779560569,55.74861089431119],[37.14027143750223,55.7679703828035],[37.13271833691628,55.79815191712639],[37.11417890820534,55.82405833934215],[37.085339796877264,55.85921694843918],[37.09632612500227,55.87234493954323],[37.093579542971,55.89087098923568],[37.111432326174146,55.92789645806585],[37.12379194531475,55.94947825677369],[37.148511183596014,55.9718181063295],[37.185590041017875,55.98798715637938],[37.23365522656475,55.99876275219725],[37.28309370312727,55.99953232219315],[37.365491164064764,56.00261044829466],[37.63328291211163,55.99953232219315],[37.718426955080375,55.996453949877655],[37.788464796877264,55.98798715637938],[37.865369093752264,55.974128386238476],[37.92098737988506,55.950248811995266],[37.97176791330319,55.930820058170006],[37.98756075998288,55.925808650386024],[38.01022006174068,55.92388101255214],[38.07099821329769,55.90167708726476],[38.161635420329,55.846860461700345],[38.20144833883364,55.81703192688114],[38.21243466695865,55.76906338157995],[38.207915487247355,55.715615224072344],[38.1901702359463,55.65501968348743],[38.1609019711759,55.61676137142932],[38.13000292332434,55.60335237847345],[38.07850451023843,55.57749306529156],[38.05721849949626,55.55434127749431],[38.05584520848063,55.53370713473293],[38.05206865818766,55.50370984580967],[38.02254290135172,55.476419650371184]]]},"properties":{"description":"area-3","fill":"#ed4543","fill-opacity":0.4,"stroke":"#ed4543","stroke-width":"5","stroke-opacity":0.4}},{"type":"Feature","id":3,"geometry":{"type":"Polygon","coordinates":[[[37.447477207299556,55.17569753862232],[37.95284830104955,55.185127909921434],[38.334499287605865,55.313506139136926],[38.51302711963713,55.48699975398527],[38.48198345854421,55.62943327336144],[38.53416851713798,55.82937125833068],[38.31320029131761,56.011046590511356],[37.95234121676462,56.16813794291141],[37.28059389657447,56.23527865104649],[36.865058761650964,56.19901667494988],[36.68679236420091,56.094301158425964],[36.621889759324986,55.94394420240814],[36.64523570659055,55.69731483056429],[36.658968616746805,55.555900395569395],[36.811408412278986,55.399073516198214],[36.944003976426416,55.311792603856794],[37.085442781329235,55.26424444889283],[37.447477207299556,55.17569753862232]],[[38.160562216399114,55.365265110862715],[37.99332591652975,55.32431118648957],[37.82175957384476,55.28258921198604],[37.486676566032244,55.255145315322025],[37.299908987907244,55.30061340437415],[37.000531546501,55.442949883790945],[36.95795952501662,55.514704641154445],[36.95755928671149,55.627208576472434],[36.83808296835211,55.78694081433856],[36.8586823335865,55.91903647605422],[36.93970650350837,55.9683598866621],[36.967172323820876,56.02223516451001],[37.0454499117115,56.06681757512087],[37.223977743742736,56.13359423463424],[37.37641304647712,56.148162173352965],[37.51923531210212,56.13129352699323],[37.7815338960866,56.070658464626334],[37.82822579061785,56.07833909069175],[37.97654122030536,56.0445328364032],[38.2154938570241,55.950641547242085],[38.333596884367864,55.76062241424436],[38.3583161226491,55.6660388154179],[38.317117392180364,55.586784100301024],[38.237466513274114,55.51983637140508],[38.24570625936785,55.44652986765858],[38.2154938570241,55.43560015611346],[38.1990143648366,55.4074812220529],[38.160562216399114,55.365265110862715]]]},"properties":{"description":"area-4","fill":"#56db40","fill-opacity":0.4,"stroke":"#56db40","stroke-width":"5","stroke-opacity":0.4}},{"type":"Feature","id":4,"geometry":{"type":"Polygon","coordinates":[[[37.60701795747936,55.051952601117016],[38.171026911375634,55.11318229161503],[38.60821780788189,55.34537371494986],[38.724759811202276,55.515345463803015],[38.75777052233544,55.82872189736893],[38.43605359934109,56.134580915722545],[38.118823374731704,56.31131611598679],[37.51283956779136,56.36029910439152],[37.07343421330935,56.425866708409394],[36.68616614690309,56.355788456297084],[36.413911203055434,56.124837542916254],[36.33760369709448,55.98621330466569],[36.27142151683808,55.711435647758506],[36.436880433089975,55.59277135656697],[36.71291192723056,55.33138001379859],[36.939454744816466,55.19103656127555],[37.273164461613355,55.122625760151216],[37.60701795747936,55.051952601117016]],[[37.44867805083671,55.17457919757894],[37.26746942719456,55.21877132310256],[37.08688165863989,55.26349700318547],[36.94408661997109,55.31172968507201],[36.81156403696329,55.3993575369956],[36.658227830868306,55.555353970777674],[36.62203803560741,55.944565670782985],[36.6879560043574,56.095319643463974],[36.8623639633418,56.19957744085355],[37.27984443209178,56.234776858928804],[37.954130320763696,56.169709025206345],[38.31522468169602,56.00823919316451],[38.53632453521172,55.82932669655762],[38.484139476617976,55.627834554748254],[38.51435187896173,55.49240587197793],[38.33857062896171,55.31736987546728],[37.94306281646172,55.182438217460906],[37.44867805083671,55.17457919757894]]]},"properties":{"description":"area-5","fill":"#1bad03","fill-opacity":0.4,"stroke":"#1bad03","stroke-width":"5","stroke-opacity":0.4}},{"type":"Feature","id":5,"geometry":{"type":"Polygon","coordinates":[[[37.41904467356151,54.91983961456292],[38.02469727236502,54.93416828073541],[38.669773743398885,55.19293814900073],[38.96238237266407,55.40457250991088],[39.09238320200778,55.84050800598513],[39.07150650453899,55.860263977484706],[39.05777359438276,55.859105442748984],[39.0557136578593,55.864511641364324],[39.06944656801555,55.86721445735509],[39.04873284709266,55.904685048824064],[39.03294000041298,55.90661364532608],[39.04255303752236,55.91895438250942],[38.80634698283486,56.16034403230912],[38.29535094977372,56.45060981657249],[37.283235471258095,56.63345146518966],[36.963713057064254,56.59348358924339],[36.81436765911504,56.57965402176748],[36.79994810345097,56.569610193316116],[36.784155256771285,56.567904371493796],[36.74123991253301,56.54970413196568],[36.489628231579545,56.50832116855452],[36.06294518178113,56.4398051121364],[35.87617760365613,56.26748792161939],[35.649584586077964,56.036000955423475],[35.8088168956937,55.8530103774611],[35.99840478151668,55.559195104382795],[36.295009249155285,55.39866690673503],[36.355119658966494,55.294873712976056],[36.385332061310244,55.2862532204957],[36.35923953201336,55.273710964949096],[36.58916611861199,55.13566545784338],[36.95481953981778,55.004089143561366],[37.41904467356151,54.91983961456292]],[[37.607132772239574,55.051079544000814],[37.27147016031739,55.122505677626926],[36.9391337345362,55.19170233388735],[36.71254071695807,55.33208284065158],[36.42140302164561,55.6020228778136],[36.273087591958145,55.71072029168841],[36.33351239664565,55.982679650245366],[36.415909857583145,56.1240807347974],[36.68782147867691,56.35656106476688],[37.07783612711441,56.42207160935799],[37.50355634195822,56.35961057639102],[38.12428388102073,56.31078899422844],[38.44369602118258,56.128402450209656],[38.760697225364524,55.833280653568494],[38.72224507692707,55.515099953078085],[38.60414204958333,55.34486105122066],[38.17567525270832,55.115677904781464],[37.607132772239574,55.051079544000814]]]},"properties":{"description":"area-6","fill":"#82cdff","fill-opacity":0.4,"stroke":"#82cdff","stroke-width":"5","stroke-opacity":0.4}},{"type":"Feature","id":6,"geometry":{"type":"Polygon","coordinates":[[[37.16162429606472,54.771945529314195],[38.310862216144095,54.77149968386163],[38.89588418880035,54.90466154115889],[39.3674647750259,55.32560616438992],[39.43887590783839,55.64843302797331],[39.35466281421254,55.996399233111745],[38.95972923427759,56.407126977842616],[38.33702075292192,56.712627623856974],[38.32256547821003,56.74660558293045],[38.330805224303795,56.75565920952735],[38.30471269500691,56.764710645311865],[38.26900712860067,56.782806945682864],[38.08617435394104,56.77334470808876],[37.80135144624835,56.86611579085363],[37.57063855562335,56.870628408997526],[37.307854919965855,56.77082372287648],[36.98611230953177,56.74100543737373],[36.74502423379868,56.721150796669335],[36.71961835000963,56.71284406814854],[36.70313885782213,56.70415779143291],[36.66537335489243,56.67997668403584],[36.60494855020493,56.64518901462595],[36.580229311923695,56.62248403150252],[36.55757001016587,56.62702612564589],[36.27736324307179,56.71894738280081],[35.45888179775928,56.51906524766435],[35.145771446196754,56.03469234968351],[34.89308589932176,55.81571544672638],[35.01815342483494,55.54873854259302],[35.36990278029337,55.352670907420425],[36.281618570074194,54.99599237698578],[37.16162429606472,54.771945529314195]],[[38.671107856704886,55.19163854673353],[38.02390341097979,54.93277260232836],[37.40729574496418,54.92249137634164],[36.95548300082358,55.00466730714291],[36.588814299651716,55.133909636630854],[36.355354826995516,55.27371079817557],[36.385567229339244,55.28546927938121],[36.352608244964244,55.29722426332684],[36.292183440276744,55.39895437758144],[35.999672453948634,55.55650706299975],[35.80054525668301,55.85736172360226],[35.64399008090176,56.036144562179885],[36.058723967620594,56.439947206566366],[36.742622893401844,56.550851454194806],[36.77970175082371,56.56829299499539],[36.798927825042455,56.56905113974266],[36.81266073519871,56.57890563304472],[37.29212646793382,56.62878934514304],[38.28913574527757,56.457332517805405],[38.801481419757245,56.163856193278065],[39.041446151465905,55.91992481629648],[39.03434333033769,55.90632153365098],[39.04807624049394,55.90439292256149],[39.070048896743934,55.86773100994734],[39.055629341079865,55.86464210322304],[39.05906256861893,55.85884973818883],[39.07279547877518,55.86039445366979],[39.09270819850176,55.841853796807904],[38.95949896998612,55.40475799223],[38.671107856704886,55.19163854673353]]]},"properties":{"description":"area-7","fill":"#177bc9","fill-opacity":0.2,"stroke":"#177bc9","stroke-width":"5","stroke-opacity":0.2}},{"type":"Feature","id":7,"geometry":{"type":"Polygon","coordinates":[[[39.64850668246413,56.125369170448494],[39.390327971526624,56.412693567585585],[38.86847738558914,56.71900495318788],[38.736641448089145,56.74316089366514],[38.64279419991798,56.835467691365096],[37.61534696236643,56.94960113448723],[36.884756142053924,56.88650879372236],[36.09374051705392,56.80824602895602],[35.654287392053924,56.72377916897711],[34.99510770455393,56.478352592132445],[34.63805204049143,55.91795579965978],[34.52818875924143,55.586471950176595],[34.66002469674142,55.27411088416839],[34.86327176705392,55.06028525102142],[35.68175321236638,54.857984004016004],[36.060781532678874,54.746917373779745],[36.53868680611638,54.72148765145322],[37.148428017053874,54.57495541128252],[37.928457313928874,54.507883731393854],[38.34593778267888,54.495095615087806],[39.10948758736638,54.58771841597712],[39.32921414986638,54.800902316651865],[39.48302274361638,55.079198567444834],[39.818105751428874,55.50861428955227],[39.64850668246413,56.125369170448494]],[[38.900747352991345,54.90549017304034],[38.31640461309424,54.77016934736138],[37.16284015996924,54.77334510254436],[36.31139973028176,54.98713025717523],[35.36657551153175,55.348738421764885],[35.0232527576255,55.55167101163053],[34.88592365606304,55.81546521749357],[35.14684894903178,56.042131407939344],[35.45446613653178,56.51881957854038],[36.26745441778178,56.72172338549019],[36.35259846075054,56.688485925774955],[36.50915363653179,56.64462785821329],[36.57781818731303,56.629492501014745],[36.66021564825055,56.680927846133706],[36.75634601934429,56.723233478785204],[37.31390217168803,56.77152432387558],[37.56384113653177,56.87092748536527],[37.79455402715678,56.869423352144246],[38.08953298782464,56.77284957742217],[38.268060819855904,56.78340451916517],[38.33947195266839,56.75776591773389],[38.32299246048089,56.74267617265588],[38.33947195266839,56.70945730585042],[38.961172157678845,56.4144618990814],[39.367666298303845,55.991919336962596],[39.35667997017884,55.93337657384692],[39.43907743111633,55.648646620418425],[39.362173134241324,55.32112335179644],[38.900747352991345,54.90549017304034]]]},"properties":{"description":"area-8","fill":"#97a100","fill-opacity":0.2,"stroke":"#97a100","stroke-width":"5","stroke-opacity":0.2}}]}