{"type":"FeatureCollection","metadata":{"name":"Тестовая карта с зонами","creator":"Yandex Map Constructor"},"features":[{"type":"Feature","id":0,"geometry":{"type":"Polygon","coordinates":[[[37.579254804686855,55.765362479580894],[37.55522221191351,55.78780890516207],[37.56861179931589,55.797480084804825],[37.598480878905775,55.809468998625675],[37.58989781005802,55.82628590120135],[37.50870197875915,55.81420553132767],[37.4824377880853,55.76962055799416],[37.51608341796818,55.73438058417722],[37.551102338866514,55.71345383360459],[37.6108404980463,55.7018229940343],[37.713837324218034,55.73128103549265],[37.740616499022835,55.749100065531195],[37.73443668945248,55.77387816938037],[37.688431440428914,55.814882131606474],[37.647404371337075,55.82937787035327],[37.59539097412028,55.827638668070975],[37.60260075195221,55.81101568518516],[37.66920536621014,55.8021213944903],[37.693237958983566,55.768459310205635],[37.64517277343675,55.74677630756762],[37.579254804686855,55.765362479580894]]]},"properties":{"description":"area-2","fill":"#ed4543","fill-opacity":0.6,"stroke":"#ed4543","stroke-width":"5","stroke-opacity":0.9}},{"type":"Feature","id":1,"geometry":{"type":"Polygon","coordinates":[[[37.53171154066593,55.82040027100859],[37.653247795548744,55.83025655963683],[37.6896400074628,55.84880277096401],[37.61651226088075,55.85691394498978],[37.49119945570503,55.84803018953971],[37.43558116957218,55.786560602376476],[37.44038768812686,55.715691825183356],[37.52003856703313,55.690100860392505],[37.73564525648624,55.69242800720721],[37.782337151017465,55.77108120023939],[37.68758007093929,55.848609627042556],[37.65736766859554,55.82871064099023],[37.73701854750183,55.77379054137152],[37.71641918226747,55.72344334072634],[37.57085033461125,55.69940861299384],[37.50767894789251,55.731193311323736],[37.48845287367376,55.78656060236208],[37.53171154066593,55.82040027100859]]]},"properties":{"description":"area-3","fill":"#82cdff","fill-opacity":0.6,"stroke":"#ed4543","stroke-width":"5","stroke-opacity":0.9}},{"type":"Feature","id":2,"geometry":{"type":"Polygon","coordinates":[[[37.555744133439404,55.78617369258341],[37.611362419572174,55.75365949099233],[37.67796703383003,55.75675725508174],[37.69032665297064,55.78385215272415],[37.67384716078311,55.80242058186228],[37.53651805922063,55.8086080828159],[37.555744133439404,55.78617369258341]]]},"properties":{"description":"area-1","fill":"#1e98ff","fill-opacity":0.6,"stroke":"#e6761b","stroke-width":"5","stroke-opacity":0.9}},{"type":"Feature","id":3,"geometry":{"type":"Polygon","coordinates":[[[37.4335212330487,55.79004261688117],[37.49119945570496,55.84957533693486],[37.61754222914243,55.85730014892091],[37.63814159437685,55.8885698703575],[37.52141185804871,55.88432484874149],[37.40262218519714,55.83798522733239],[37.34563060804874,55.72654351430425],[37.399188957658126,55.67691106733481],[37.53514476820501,55.656729800553315],[37.7019996266034,55.658282576778454],[37.82765575453312,55.74359005118475],[37.79744335218929,55.824072514744444],[37.63608165785331,55.88934164235456],[37.623035393204916,55.85652773710253],[37.69032665297058,55.84455338215944],[37.78783031507996,55.77146826051126],[37.73976512953313,55.696306276049874],[37.663547478165945,55.6831185852581],[37.436267815079994,55.70871414009364],[37.4335212330487,55.79004261688117]]]},"properties":{"description":"area-4","fill":"#177bc9","fill-opacity":0.6,"stroke":"#ff931e","stroke-width":"5","stroke-opacity":0.9}},{"type":"Feature","id":4,"geometry":{"type":"Polygon","coordinates":[[[37.4057120899823,55.840110340522685],[37.518665276017465,55.8874121834131],[37.639514885392465,55.89049927149064],[37.67934032484563,55.92521202249185],[37.48158641859562,55.918271968392574],[37.34425731703312,55.882009185864],[37.23714061781436,55.749786938366995],[37.28795238539246,55.68079088195571],[37.34700389906434,55.629546202316696],[37.445880852189376,55.61478145627049],[37.56123729750184,55.60934040500229],[37.67659374281438,55.613226947561735],[37.820789299455,55.63653808012306],[37.91829296156437,55.69010086033215],[37.936145744767465,55.75365949093544],[37.903530083146286,55.85054102275144],[37.68277355238456,55.927139593845624],[37.639514885392465,55.88818397856472],[37.80276485487491,55.822429711877824],[37.83555217787296,55.74572034264656],[37.700626335587806,55.657118000407394],[37.539607964005775,55.64993567721179],[37.40056224867375,55.67070256001368],[37.34357067152528,55.726156006106024],[37.4057120899823,55.840110340522685]]]},"properties":{"description":"area-5","fill":"#0e4779","fill-opacity":0.6,"stroke":"#ffd21e","stroke-width":"5","stroke-opacity":0.9}}]}